[{"OBJECT_NAME":"LEMUR-1","OBJECT_ID":"2014-033AL","EPOCH":"2026-03-09T21:47:45.945024","MEAN_MOTION":14.84803636,"ECCENTRICITY":0.00494996,"INCLINATION":97.7719,"RA_OF_ASC_NODE":221.0277,"ARG_OF_PERICENTER":45.162,"MEAN_ANOMALY":315.3601,"EPHEMERIS_TYPE":0,"CLASSIFICATION_TYPE":"U","NORAD_CAT_ID":40044,"ELEMENT_SET_NO":999,"REV_AT_EPOCH":63073,"BSTAR":0.00036816661,"MEAN_MOTION_DOT":3.139e-5,"MEAN_MOTION_DDOT":0},{"OBJECT_NAME":"CZ-4 DEB","OBJECT_ID":"1990-081BL","EPOCH":"2026-03-09T17:23:57.962688","MEAN_MOTION":14.8316917,"ECCENTRICITY":0.0022936,"INCLINATION":99.0368,"RA_OF_ASC_NODE":144.8877,"ARG_OF_PERICENTER":127.0337,"MEAN_ANOMALY":352.4491,"EPHEMERIS_TYPE":0,"CLASSIFICATION_TYPE":"U","NORAD_CAT_ID":20900,"ELEMENT_SET_NO":999,"REV_AT_EPOCH":83354,"BSTAR":0.0030046619,"MEAN_MOTION_DOT":0.00024647,"MEAN_MOTION_DDOT":0}]
